NORAD_CAT_ID,OBJECT_NAME,OBJECT_TYPE,EPOCH,MEAN_MOTION,ECCENTRICITY,INCLINATION,RA_OF_ASC_NODE,ARG_OF_PERICENTER,MEAN_ANOMALY,BSTAR,MEAN_MOTION_DOT,MEAN_MOTION_DDOT,TLE_LINE0,TLE_LINE1,TLE_LINE2,SEMIMAJOR_AXIS,PERIOD,APOGEE,PERIGEE,DECAYED
50186.0,STARLINK-3274,PAYLOAD,2022-04-01 14:00:01,15.08865502,0.000199,53.2166,235.0165,38.4593,149.0417,-0.0027748,-0.0004421,0.0,0 STARLINK-3274,1 50186U 21125AG  22091.58334491 -.00044210  00000-0 -27748-2 0  9995,2 50186  53.2166 235.0165 0001990  38.4593 149.0417 15.08865502 18878,6917.802,95.436,541.044,538.2909999999998,0.0
50186.0,STARLINK-3274,PAYLOAD,2022-04-01 22:00:00,15.08845942,0.0002128,53.2163,233.5206,35.1301,163.9882,-0.0021325,-0.00034073,0.0,0 STARLINK-3274,1 50186U 21125AG  22091.91667824 -.00034073  00000-0 -21325-2 0  9992,2 50186  53.2163 233.5206 0002128  35.1301 163.9882 15.08845942  3588,6917.861999999999,95.437,541.1990000000002,538.255,0.0
50186.0,STARLINK-3274,PAYLOAD,2022-04-02 14:00:01,15.0882519,0.0002119,53.2168,230.5276,41.3932,180.9249,-0.00032585,-5.468e-05,0.0,0 STARLINK-3274,1 50186U 21125AG  22092.58335648 -.00005468  00000-0 -32585-3 0  9999,2 50186  53.2168 230.5276 0002119  41.3932 180.9249 15.08825190 19021,6917.926,95.438,541.257,538.325,0.0
50186.0,STARLINK-3274,PAYLOAD,2022-04-02 22:00:01,15.08853501,0.000218,53.2164,229.0316,37.4811,196.4217,-0.00078309,-0.00012735,0.0,0 STARLINK-3274,1 50186U 21125AG  22092.91668981 -.00012735  00000-0 -78309-3 0  9994,2 50186  53.2164 229.0316 0002180  37.4811 196.4217 15.08853501 19074,6917.839,95.437,541.212,538.196,0.0
50186.0,STARLINK-3274,PAYLOAD,2022-04-03 22:00:00,15.08819752,0.0002012,53.216,224.5429,31.9002,236.7044,-0.0014421,-0.00023154,0.0,0 STARLINK-3274,1 50186U 21125AG  22093.91667824 -.00023154  00000-0 -14421-2 0  9991,2 50186  53.2160 224.5429 0002012  31.9002 236.7044 15.08819752  3596,6917.941999999999,95.439,541.1990000000002,538.415,0.0
50186.0,STARLINK-3274,PAYLOAD,2022-04-04 06:00:02,15.08783812,0.0001796,53.216,223.045,36.3705,243.8636,0.0038893,0.0006206,0.0,0 STARLINK-3274,1 50186U 21125AG  22094.25002315  .00062060  00000-0  38893-2 0  9993,2 50186  53.2160 223.0450 0001796  36.3705 243.8636 15.08783812 19276,6918.052,95.441,541.16,538.675,0.0
50186.0,STARLINK-3274,PAYLOAD,2022-04-04 14:00:01,15.08828209,0.0001977,53.216,221.5503,34.2835,257.4424,-0.00012853,-2.333e-05,0.0,0 STARLINK-3274,1 50186U 21125AG  22094.58334491 -.00002333  00000-0 -12853-3 0  9990,2 50186  53.2160 221.5503 0001977  34.2835 257.4424 15.08828209  3617,6917.916,95.438,541.149,538.414,0.0
50186.0,STARLINK-3274,PAYLOAD,2022-04-04 22:00:00,15.08852852,0.0002037,53.2155,220.054,32.116,271.1975,0.00029533,4.417e-05,0.0,0 STARLINK-3274,1 50186U 21125AG  22094.91667824  .00004417  00000-0  29533-3 0  9992,2 50186  53.2155 220.0540 0002037  32.1160 271.1975 15.08852852  3561,6917.840999999999,95.437,541.115,538.297,0.0
50186.0,STARLINK-3274,PAYLOAD,2022-04-05 00:00:00,15.08863378,0.0002006,53.2156,219.6793,33.6214,2.5917,-0.00082616,-0.00013421,0.0,0 STARLINK-3274,1 50186U 21125AG  22095.00001157 -.00013421  00000-0 -82616-3 0  9992,2 50186  53.2156 219.6793 0002006  33.6214   2.5917 15.08863378 19393,6917.809,95.436,541.062,538.286,0.0
50186.0,STARLINK-3274,PAYLOAD,2022-04-05 14:00:01,15.08864635,0.0002075,53.2155,217.0614,35.352,291.2496,-0.0037072,-0.00058848,0.0,0 STARLINK-3274,1 50186U 21125AG  22095.58335648 -.00058848  00000-0 -37072-2 0  9997,2 50186  53.2155 217.0614 0002075  35.3520 291.2496 15.08864635  3569,6917.805,95.436,541.106,538.235,0.0
50186.0,STARLINK-3274,PAYLOAD,2022-04-05 22:00:00,15.08833605,0.0002077,53.2153,215.5649,29.9322,308.2039,-0.001978,-0.00031626,0.0,0 STARLINK-3274,1 50186U 21125AG  22095.91667824 -.00031626  00000-0 -19780-2 0  9999,2 50186  53.2153 215.5649 0002077  29.9322 308.2039 15.08833605  3610,6917.9,95.438,541.202,538.328,0.0
50186.0,STARLINK-3274,PAYLOAD,2022-04-06 06:00:02,15.0879617,0.0001915,53.2153,214.067,34.1838,315.5926,0.0038848,0.00062009,0.0,0 STARLINK-3274,1 50186U 21125AG  22096.25002315  .00062009  00000-0  38848-2 0  9998,2 50186  53.2153 214.0670 0001915  34.1838 315.5926 15.08796170 19571,6918.014,95.44,541.2040000000002,538.555,0.0
50186.0,STARLINK-3274,PAYLOAD,2022-04-06 14:00:01,15.08837394,0.000215,53.2154,212.5724,32.6567,328.6219,-0.00044631,-7.384e-05,0.0,0 STARLINK-3274,1 50186U 21125AG  22096.58334491 -.00007384  00000-0 -44631-3 0  9992,2 50186  53.2154 212.5724 0002150  32.6567 328.6219 15.08837394  3600,6917.888000000001,95.438,541.241,538.266,0.0
50186.0,STARLINK-3274,PAYLOAD,2022-04-06 22:00:00,15.08855411,0.000221,53.2153,211.0758,31.8262,341.0418,-0.0026286,-0.00041899,0.0,0 STARLINK-3274,1 50186U 21125AG  22096.91667824 -.00041899  00000-0 -26286-2 0  9992,2 50186  53.2153 211.0758 0002210  31.8262 341.0418 15.08855411 19685,6917.833000000001,95.437,541.227,538.169,0.0
50186.0,STARLINK-3274,PAYLOAD,2022-04-07 14:00:01,15.08858661,0.0002279,53.2156,208.0834,34.391,1.6568,-0.0028994,-0.00046162,0.0,0 STARLINK-3274,1 50186U 21125AG  22097.58334491 -.00046162  00000-0 -28994-2 0  9993,2 50186  53.2156 208.0834 0002279  34.3910   1.6568 15.08858661  3613,6917.823,95.436,541.265,538.112,0.0
50186.0,STARLINK-3274,PAYLOAD,2022-04-07 20:00:01,15.0883741,0.0002296,53.2154,206.9612,31.0967,283.666,0.0010399,0.0001629999999999,0.0,0 STARLINK-3274,1 50186U 21125AG  22097.83334491  .00016300  00000-0  10399-2 0  9990,2 50186  53.2154 206.9612 0002296  31.0967 283.6660 15.08837410 19810,6917.888000000001,95.438,541.342,538.165,0.0
50186.0,STARLINK-3274,PAYLOAD,2022-04-07 22:00:00,15.08851203,0.0002263,53.2156,206.5866,31.6462,16.0122,-0.00056452,-9.265e-05,0.0,0 STARLINK-3274,1 50186U 21125AG  22097.91667824 -.00009265  00000-0 -56452-3 0  9993,2 50186  53.2156 206.5866 0002263  31.6462  16.0122 15.08851203  3583,6917.846,95.437,541.2769999999998,538.146,0.0
50186.0,STARLINK-3274,PAYLOAD,2022-04-08 14:00:03,15.08857374,0.0002347,53.2159,203.5941,34.5023,36.5055,-0.0015065,-0.00024197,0.0,0 STARLINK-3274,1 50186U 21125AG  22098.58336806 -.00024197  00000-0 -15065-2 0  9995,2 50186  53.2159 203.5941 0002347  34.5023  36.5055 15.08857374  3605,6917.8269999999975,95.436,541.316,538.069,0.0
50186.0,STARLINK-3274,PAYLOAD,2022-04-08 22:00:00,15.08859493,0.0002239,53.2158,202.0973,31.6213,50.8652,-0.0042401,-0.00067179,0.0,0 STARLINK-3274,1 50186U 21125AG  22098.91667824 -.00067179  00000-0 -42401-2 0  9990,2 50186  53.2158 202.0973 0002239  31.6213  50.8652 15.08859493 19986,6917.821,95.436,541.235,538.137,0.0
50186.0,STARLINK-3274,PAYLOAD,2022-04-09 14:00:01,15.08834523,0.0002229,53.2161,199.1052,30.3772,75.2557,-0.0024993,-0.00039841,0.0,0 STARLINK-3274,1 50186U 21125AG  22099.58334491 -.00039841  00000-0 -24993-2 0  9996,2 50186  53.2161 199.1052 0002229  30.3772  75.2557 15.08834523  3603,6917.897,95.438,541.304,538.22,0.0
50186.0,STARLINK-3274,PAYLOAD,2022-04-09 16:00:00,15.08821213,0.0002253,53.2161,198.7314,28.8513,169.6902,0.00056054,8.640000000000001e-05,0.0,0 STARLINK-3274,1 50186U 21125AG  22099.66667824  .00008640  00000-0  56054-3 0  9999,2 50186  53.2161 198.7314 0002253  28.8513 169.6902 15.08821213 20097,6917.938,95.439,541.361,538.244,0.0
50186.0,STARLINK-3274,PAYLOAD,2022-04-09 22:00:00,15.0883415,0.0002146,53.2159,197.6081,28.1224,89.0991,-0.00075891,-0.00012344,0.0,0 STARLINK-3274,1 50186U 21125AG  22099.91667824 -.00012344  00000-0 -75891-3 0  9995,2 50186  53.2159 197.6081 0002146  28.1224  89.0991 15.08834150  3601,6917.898,95.438,541.248,538.279,0.0
50186.0,STARLINK-3274,PAYLOAD,2022-04-10 14:00:01,15.08851683,0.0002231,53.2161,194.6163,30.0939,110.3024,-0.00091733,-0.00014863,0.0,0 STARLINK-3274,1 50186U 21125AG  22100.58334491 -.00014863  00000-0 -91733-3 0  9993,2 50186  53.2161 194.6163 0002231  30.0939 110.3024 15.08851683  3607,6917.845,95.437,541.253,538.1659999999998,0.0
50186.0,STARLINK-3274,PAYLOAD,2022-04-10 22:00:00,15.08869347,0.0002186,53.2158,193.11900000000003,30.8121,121.2086,-0.0022619,-0.00036136,0.0,0 STARLINK-3274,1 50186U 21125AG  22100.91667824 -.00036136  00000-0 -22619-2 0  9992,2 50186  53.2158 193.1190 0002186  30.8121 121.2086 15.08869347 20285,6917.791,95.436,541.168,538.143,0.0
50186.0,STARLINK-3274,PAYLOAD,2022-04-11 14:00:01,15.08831918,0.0002214,53.2159,190.1274,29.797,145.4087,-0.00078696,-0.00012789,0.0,0 STARLINK-3274,1 50186U 21125AG  22101.58334491 -.00012789  00000-0 -78696-3 0  9992,2 50186  53.2159 190.1274 0002214  29.7970 145.4087 15.08831918  3606,6917.905,95.438,541.302,538.238,0.0
50186.0,STARLINK-3274,PAYLOAD,2022-04-11 22:00:00,15.08844516,0.0002129,53.2156,188.6299,30.5713,156.2143,-0.0054646999999999,-0.00086233,0.0,0 STARLINK-3274,1 50186U 21125AG  22101.91667824 -.00086233  00000-0 -54647-2 0  9992,2 50186  53.2156 188.6299 0002129  30.5713 156.2143 15.08844516  3591,6917.8669999999975,95.437,541.2040000000002,538.259,0.0
50186.0,STARLINK-3274,PAYLOAD,2022-04-12 06:00:02,15.08780364,0.0002105,53.2159,187.133,37.5529,160.84799999999996,0.0038652,0.00061665,0.0,0 STARLINK-3274,1 50186U 21125AG  22102.25002315  .00061665  00000-0  38652-2 0  9996,2 50186  53.2159 187.1330 0002105  37.5529 160.8480 15.08780364 20482,6918.063,95.441,541.384,538.471,0.0
50186.0,STARLINK-3274,PAYLOAD,2022-04-12 14:00:01,15.08806263,0.0002367,53.2158,185.6386,34.7513,175.1373,0.0016024,0.00025283,0.0,0 STARLINK-3274,1 50186U 21125AG  22102.58334491  .00025283  00000-0  16024-2 0  9990,2 50186  53.2158 185.6386 0002367  34.7513 175.1373 15.08806263  3610,6917.984,95.44,541.486,538.211,0.0
50186.0,STARLINK-3274,PAYLOAD,2022-04-12 22:00:00,15.08839884,0.0002248,53.2156,184.141,35.1336,186.3192,-0.0012153,-0.00019578,0.0,0 STARLINK-3274,1 50186U 21125AG  22102.91667824 -.00019578  00000-0 -12153-2 0  9997,2 50186  53.2156 184.1410 0002248  35.1336 186.3192 15.08839884 20589,6917.880999999999,95.438,541.3009999999998,538.191,0.0
